$$SOE
2460154.500000000, A.D. 2023-Jul-29 00:00:00.0000, -3.130512814006324E+08, -3.928566365995986E+08, 2.480009947975196E+07,
2460161.500000000, A.D. 2023-Aug-05 00:00:00.0000, -3.039437844731573E+08, -3.982007341023322E+08, 2.451299315177675E+07,
2460168.500000000, A.D. 2023-Aug-12 00:00:00.0000, -2.947194033058459E+08, -4.033916239992199E+08, 2.421645648722826E+07,
2460175.500000000, A.D. 2023-Aug-19 00:00:00.0000, -2.853807527295753E+08, -4.084260292329161E+08, 2.391052675312588E+07,
2460182.500000000, A.D. 2023-Aug-26 00:00:00.0000, -2.759305586996968E+08, -4.133007129664540E+08, 2.359524743034708E+07,
2460189.500000000, A.D. 2023-Sep-02 00:00:00.0000, -2.663716584524332E+08, -4.180124831360719E+08, 2.327066833971159E+07,
2460196.500000000, A.D. 2023-Sep-09 00:00:00.0000, -2.567070004403751E+08, -4.225581972042769E+08, 2.293684574929112E+07,
2460203.500000000, A.D. 2023-Sep-16 00:00:00.0000, -2.469396438694578E+08, -4.269347671611583E+08, 2.259384244214645E+07,
2460210.500000000, A.D. 2023-Sep-23 00:00:00.0000, -2.370727574122578E+08, -4.311391644762141E+08, 2.224172772913283E+07,
2460217.500000000, A.D. 2023-Sep-30 00:00:00.0000, -2.271096174288806E+08, -4.351684237978950E+08, 2.188057753463662E+07,
2460224.500000000, A.D. 2023-Oct-07 00:00:00.0000, -2.170536080410831E+08, -4.390196459304252E+08, 2.151047472614062E+07,
2460231.500000000, A.D. 2023-Oct-14 00:00:00.0000, -2.069082220120483E+08, -4.426900033875862E+08, 2.113150932085389E+07,
2460238.500000000, A.D. 2023-Oct-21 00:00:00.0000, -1.966770591970266E+08, -4.461767469075177E+08, 2.074377840380391E+07,
2460245.500000000, A.D. 2023-Oct-28 00:00:00.0000, -1.863638239844369E+08, -4.494772106540042E+08, 2.034738607245114E+07,
2460252.500000000, A.D. 2023-Nov-04 00:00:00.0000, -1.759723229733525E+08, -4.525888168587110E+08, 1.994244345921886E+07,
2460259.500000000, A.D. 2023-Nov-11 00:00:00.0000, -1.655064627063669E+08, -4.555090804874519E+08, 1.952906876628470E+07,
2460266.500000000, A.D. 2023-Nov-18 00:00:00.0000, -1.549702472357354E+08, -4.582356139775625E+08, 1.910738728687829E+07,
2460273.500000000, A.D. 2023-Nov-25 00:00:00.0000, -1.443677754484197E+08, -4.607661320064954E+08, 1.867753140789896E+07,
2460280.500000000, A.D. 2023-Dec-02 00:00:00.0000, -1.337032381217062E+08, -4.630984562855221E+08, 1.823964059006342E+07,
2460287.500000000, A.D. 2023-Dec-09 00:00:00.0000, -1.229809146329888E+08, -4.652305204199552E+08, 1.779386131338611E+07,
2460294.500000000, A.D. 2023-Dec-16 00:00:00.0000, -1.122051690390517E+08, -4.671603748055152E+08, 1.734034696240184E+07,
2460301.500000000, A.D. 2023-Dec-23 00:00:00.0000, -1.013804451806788E+08, -4.688861908553201E+08, 1.687925767507264E+07,
2460308.500000000, A.D. 2023-Dec-30 00:00:00.0000, -9.051126215838987E+07, -4.704062634897234E+08, 1.641076036372739E+07,
2460315.500000000, A.D. 2024-Jan-06 00:00:00.0000, -7.960221195820627E+07, -4.717190142308711E+08, 1.593502887725750E+07,
2460322.500000000, A.D. 2024-Jan-13 00:00:00.0000, -6.865795606214009E+07, -4.728229966912155E+08, 1.545224386549148E+07,
2460329.500000000, A.D. 2024-Jan-20 00:00:00.0000, -5.768321982930382E+07, -4.737169013553339E+08, 1.496259248542592E+07,
2460336.500000000, A.D. 2024-Jan-27 00:00:00.0000, -4.668278668782371E+07, -4.743995589869500E+08, 1.446626818865943E+07,
2460343.500000000, A.D. 2024-Feb-03 00:00:00.0000, -3.566149257884953E+07, -4.748699435938671E+08, 1.396347055181178E+07,
2460350.500000000, A.D. 2024-Feb-10 00:00:00.0000, -2.462422038966457E+07, -4.751271752263222E+08, 1.345440510076767E+07,
2460357.500000000, A.D. 2024-Feb-17 00:00:00.0000, -1.357589425284657E+07, -4.751705225854989E+08, 1.293928311678809E+07,
2460364.500000000, A.D. 2024-Feb-24 00:00:00.0000, -2.521473692024380E+06, -4.749994054124851E+08, 1.241832142254817E+07,
2460371.500000000, A.D. 2024-Mar-02 00:00:00.0000, 8.534052398184597E+06, -4.746133966763656E+08, 1.189174214298710E+07,
2460378.500000000, A.D. 2024-Mar-09 00:00:00.0000, 1.958567205949287E+07, -4.740122246123672E+08, 1.135977242348206E+07,
2460385.500000000, A.D. 2024-Mar-16 00:00:00.0000, 3.062835724168959E+07, -4.731957744033352E+08, 1.082264408578813E+07,
2460392.500000000, A.D. 2024-Mar-23 00:00:00.0000, 4.165707131581869E+07, -4.721640883884330E+08, 1.028059332263657E+07,
2460399.500000000, A.D. 2024-Mar-30 00:00:00.0000, 5.266677486671355E+07, -4.709173648201171E+08, 9.733860635226011E+06,
2460406.500000000, A.D. 2024-Apr-06 00:00:00.0000, 6.365242999928497E+07, -4.694559585318942E+08, 9.182690715754926E+06,
2460413.500000000, A.D. 2024-Apr-13 00:00:00.0000, 7.460900668795972E+07, -4.677803826773188E+08, 8.627332018565059E+06,
2460420.500000000, A.D. 2024-Apr-20 00:00:00.0000, 8.553149019478245E+07, -4.658913088625317E+08, 8.068036327074677E+06,
2460427.500000000, A.D. 2024-Apr-27 00:00:00.0000, 9.641488801646602E+07, -4.637895662336375E+08, 7.505058410906225E+06,
2460434.500000000, A.D. 2024-May-04 00:00:00.0000, 1.072542364258055E+08, -4.614761402233187E+08, 6.938655708808839E+06,
2460441.500000000, A.D. 2024-May-11 00:00:00.0000, 1.180446068235900E+08, -4.589521710609822E+08, 6.369088008383512E+06,
2460448.500000000, A.D. 2024-May-18 00:00:00.0000, 1.287811119611441E+08, -4.562189520288272E+08, 5.796617118085831E+06,
2460455.500000000, A.D. 2024-May-25 00:00:00.0000, 1.394589120369997E+08, -4.532779274764582E+08, 5.221506529912770E+06,
2460462.500000000, A.D. 2024-Jun-01 00:00:00.0000, 1.500732207072617E+08, -4.501306906588151E+08, 4.644021063913912E+06,
2460469.500000000, A.D. 2024-Jun-08 00:00:00.0000, 1.606193112366065E+08, -4.467789814299053E+08, 4.064426471493363E+06,
2460476.500000000, A.D. 2024-Jun-15 00:00:00.0000, 1.710925231705603E+08, -4.432246832588750E+08, 3.482989006932825E+06,
2460483.500000000, A.D. 2024-Jun-22 00:00:00.0000, 1.814882685052771E+08, -4.394698184062507E+08, 2.899975156890064E+06,
2460490.500000000, A.D. 2024-Jun-29 00:00:00.0000, 1.918020352151449E+08, -4.355165430942876E+08, 2.315651575042486E+06,
2460497.500000000, A.D. 2024-Jul-06 00:00:00.0000, 2.020293907668216E+08, -4.313671451558647E+08, 1.730284778524429E+06,
2460504.500000000, A.D. 2024-Jul-13 00:00:00.0000, 2.121659875546355E+08, -4.270240413531605E+08, 1.144140659368724E+06,
2460511.500000000, A.D. 2024-Jul-20 00:00:00.0000, 2.222075682585331E+08, -4.224897732344256E+08, 5.574840881604254E+05,
2460518.500000000, A.D. 2024-Jul-27 00:00:00.0000, 2.321499704565507E+08, -4.177670025057591E+08, -2.942140726852417E+04,
2460525.500000000, A.D. 2024-Aug-03 00:00:00.0000, 2.419891307543249E+08, -4.128585063106581E+08, -6.163139428521991E+05,
2460532.500000000, A.D. 2024-Aug-10 00:00:00.0000, 2.517210885886725E+08, -4.077671724401864E+08, -1.202933573791146E+06,
2460539.500000000, A.D. 2024-Aug-17 00:00:00.0000, 2.613419897453441E+08, -4.024959944708996E+08, -1.789022586446166E+06,
2460546.500000000, A.D. 2024-Aug-24 00:00:00.0000, 2.708480896130281E+08, -3.970480668718293E+08, -2.374325790485531E+06,
2460553.500000000, A.D. 2024-Aug-31 00:00:00.0000, 2.802357562851728E+08, -3.914265801611415E+08, -2.958590826508403E+06,
2460560.500000000, A.D. 2024-Sep-07 00:00:00.0000, 2.895014738729728E+08, -3.856348160056906E+08, -3.541568511955172E+06,
2460567.500000000, A.D. 2024-Sep-14 00:00:00.0000, 2.986418461141264E+08, -3.796761412879628E+08, -4.123013151327074E+06,
2460574.500000000, A.D. 2024-Sep-21 00:00:00.0000, 3.076535982485056E+08, -3.735540007482660E+08, -4.702682590557724E+06,
2460581.500000000, A.D. 2024-Sep-28 00:00:00.0000, 3.165335766736201E+08, -3.672719114486262E+08, -5.280338234404564E+06,
2460588.500000000, A.D. 2024-Oct-05 00:00:00.0000, 3.252787500517946E+08, -3.608334590741112E+08, -5.855745363199562E+06,
2460595.500000000, A.D. 2024-Oct-12 00:00:00.0000, 3.338862115128688E+08, -3.542422931092966E+08, -6.428673472149238E+06,
2460602.500000000, A.D. 2024-Oct-19 00:00:00.0000, 3.423531802067783E+08, -3.475021211785542E+08, -6.998896494506747E+06,
2460609.500000000, A.D. 2024-Oct-26 00:00:00.0000, 3.506770021793281E+08, -3.406167033683584E+08, -7.566192970985845E+06,
2460616.500000000, A.D. 2024-Nov-02 00:00:00.0000, 3.588551508347942E+08, -3.335898466954049E+08, -8.130346201065496E+06,
2460623.500000000, A.D. 2024-Nov-09 00:00:00.0000, 3.668852270891024E+08, -3.264253997137864E+08, -8.691144383336678E+06,
2460630.500000000, A.D. 2024-Nov-16 00:00:00.0000, 3.747649592477975E+08, -3.191272472735530E+08, -9.248380747294977E+06,
2460637.500000000, A.D. 2024-Nov-23 00:00:00.0000, 3.824922026654215E+08, -3.116993054921116E+08, -9.801853685069725E+06,
2460644.500000000, A.D. 2024-Nov-30 00:00:00.0000, 3.900649394057057E+08, -3.041455169920232E+08, -1.035136690581127E+07,
2460651.500000000, A.D. 2024-Dec-07 00:00:00.0000, 3.974812783345422E+08, -2.964698459953793E+08, -1.089672961691841E+07,
2460658.500000000, A.D. 2024-Dec-14 00:00:00.0000, 4.047394549703731E+08, -2.886762720621058E+08, -1.143775656895080E+07,
2460665.500000000, A.D. 2024-Dec-21 00:00:00.0000, 4.118378287857133E+08, -2.807687837240381E+08, -1.197426785305476E+07,
2460672.500000000, A.D. 2024-Dec-28 00:00:00.0000, 4.187748799429250E+08, -2.727513749906895E+08, -1.250608887454626E+07,
2460679.500000000, A.D. 2025-Jan-04 00:00:00.0000, 4.255492080726258E+08, -2.646280423567982E+08, -1.303305054691099E+07,
2460686.500000000, A.D. 2025-Jan-11 00:00:00.0000, 4.321595312858520E+08, -2.564027806575641E+08, -1.355498940369555E+07,
2460693.500000000, A.D. 2025-Jan-18 00:00:00.0000, 4.386046845155515E+08, -2.480795786955733E+08, -1.407174761944148E+07,
2460700.500000000, A.D. 2025-Jan-25 00:00:00.0000, 4.448836174432026E+08, -2.396624151181675E+08, -1.458317300097404E+07,
2460707.500000000, A.D. 2025-Feb-01 00:00:00.0000, 4.509953922122914E+08, -2.311552545786591E+08, -1.508911896910580E+07,
2460714.500000000, A.D. 2025-Feb-08 00:00:00.0000, 4.569391809991662E+08, -2.225620441642173E+08, -1.558944453475738E+07,
2460721.500000000, A.D. 2025-Feb-15 00:00:00.0000, 4.627142634818960E+08, -2.138867101122287E+08, -1.608401427407940E+07,
$$EOE